#cV2022  1 22  0  0  0.00000000    1885   SLR   ECF FIT NSGF
## 2193 518400.00000000   180.00000000 59601 0.0000000000000
+    1   L56  0  0  0  0  0  0  0  0  0  0  0  0  0  0  0  0
+          0  0  0  0  0  0  0  0  0  0  0  0  0  0  0  0  0
+          0  0  0  0  0  0  0  0  0  0  0  0  0  0  0  0  0
+          0  0  0  0  0  0  0  0  0  0  0  0  0  0  0  0  0
+          0  0  0  0  0  0  0  0  0  0  0  0  0  0  0  0  0
++         0  0  0  0  0  0  0  0  0  0  0  0  0  0  0  0  0
++         0  0  0  0  0  0  0  0  0  0  0  0  0  0  0  0  0
++         0  0  0  0  0  0  0  0  0  0  0  0  0  0  0  0  0
++         0  0  0  0  0  0  0  0  0  0  0  0  0  0  0  0  0
++         0  0  0  0  0  0  0  0  0  0  0  0  0  0  0  0  0
%c L  cc UTC ccc cccc cccc cccc cccc ccccc ccccc ccccc ccccc
%c cc cc ccc ccc cccc cccc cccc cccc ccccc ccccc ccccc ccccc
%f  0.0000000  0.000000000  0.00000000000  0.000000000000000
%f  0.0000000  0.000000000  0.00000000000  0.000000000000000
%i    0    0    0    0      0      0      0      0         0
%i    0    0    0    0      0      0      0      0         0
/*                                                          
/* Earth-centered-fixed orbital predictions from SGF ILRS AC
/* The underlying ECF frame is that of IERS/ITRF            
/* Note: Solution based on 4-day long arc                   
/*                                                          
*  2022  1 22 20 24  0.00000000
PL56   1356.526441    534.989372  -7034.972203
VL56  64698.027000 -37137.965000   9610.569000
*  2022  1 22 20 27  0.00000000
PL56   2482.151132   -153.772075  -6741.114342
VL56  60002.768000 -39150.465000  22946.150000
*  2022  1 22 20 30  0.00000000
PL56   3504.017350   -865.430962  -6213.656503
VL56  53208.497000 -39665.412000  35491.605000
*  2022  1 22 20 33  0.00000000
PL56   4386.668796  -1572.302263  -5470.756106
VL56  44585.086000 -38611.602000  46815.061000
*  2022  1 22 20 36  0.00000000
PL56   5100.098519  -2245.962842  -4538.013692
VL56  34466.421000 -35978.910000  56523.730000
*  2022  1 22 20 39  0.00000000
PL56   5620.796336  -2858.379357  -3447.641542
VL56  23238.395000 -31821.032000  64277.965000
*  2022  1 22 20 42  0.00000000
PL56   5932.564859  -3383.062537  -2237.393055
VL56  11325.120000 -26255.617000  69803.757000
*  2022  1 22 20 45  0.00000000
PL56   6027.067147  -3796.199450   -949.277621
VL56   -826.929210 -19461.691000  72903.813000
*  2022  1 22 20 48  0.00000000
PL56   5904.074627  -4077.712002    371.898255
VL56 -12766.240000 -11674.071000  73465.827000
*  2022  1 22 20 51  0.00000000
PL56   5571.398155  -4212.190280   1680.111698
VL56 -24054.044000  -3175.008900  71467.489000
*  2022  1 22 20 54  0.00000000
PL56   5044.497971  -4189.651150   2929.764257
VL56 -34282.011000   5716.844600  66978.120000
*  2022  1 22 20 57  0.00000000
PL56   4345.788617  -4006.077886   4077.307610
VL56 -43088.221000  14659.424000  60155.421000
*  2022  1 22 21  0  0.00000000
PL56   3503.680320  -3663.719476   5082.784569
VL56 -50170.461000  23300.939000  51239.363000
*  2022  1 22 21  3  0.00000000
PL56   2551.401666  -3171.136759   5911.227782
VL56 -55297.024000  31294.271000  40542.542000
*  2022  1 22 21  6  0.00000000
PL56   1525.663109  -2542.993038   6533.862665
VL56 -58313.676000  38310.736000  28438.327000
*  2022  1 22 21  9  0.00000000
PL56    465.222398  -1799.603823   6929.079016
VL56 -59147.520000  44053.011000  15347.067000
*  2022  1 22 21 12  0.00000000
PL56   -590.588419   -966.266429   7083.148441
VL56 -57807.461000  48266.716000   1721.658000
*  2022  1 22 21 15  0.00000000
PL56  -1603.319536    -72.392662   6990.677168
VL56 -54382.060000  50750.637000 -11967.214000
*  2022  1 22 21 18  0.00000000
PL56  -2536.798220    849.527963   6654.789105
VL56 -49034.830000  51365.333000 -25246.361000
*  2022  1 22 21 21  0.00000000
PL56  -3358.421499   1765.103480   6087.035305
VL56 -41997.558000  50039.803000 -37655.185000
*  2022  1 22 21 24  0.00000000
PL56  -4040.307573   2639.318095   5307.029536
VL56 -33561.421000  46776.325000 -48760.904000
*  2022  1 22 21 27  0.00000000
PL56  -4560.270283   3437.875841   4341.811913
VL56 -24066.076000  41652.776000 -58173.665000
*  2022  1 22 21 30  0.00000000
PL56  -4902.578922   4128.560523   3224.945474
VL56 -13886.804000  34821.985000 -65560.812000
*  2022  1 22 21 33  0.00000000
PL56  -5058.469106   4682.556446   1995.367013
VL56  -3419.886300  26508.120000 -70659.886000
*  2022  1 22 21 36  0.00000000
PL56  -5026.377742   5075.672985    696.023933
VL56   6933.581900  16999.389000 -73289.391000
*  2022  1 22 21 39  0.00000000
PL56  -4811.886499   5289.407149   -627.656753
VL56  16783.558000   6637.510800 -73356.237000
*  2022  1 22 21 42  0.00000000
PL56  -4427.375470   5311.791012  -1929.405066
VL56  25767.280000  -4195.509500 -70860.247000
*  2022  1 22 21 45  0.00000000
PL56  -3891.395006   5137.976986  -3163.782576
VL56  33564.258000 -15093.330000 -65893.571000
*  2022  1 22 21 48  0.00000000
PL56  -3227.792616   4770.528671  -4287.812393
VL56  39908.258000 -25641.722000 -58636.325000
*  2022  1 22 21 51  0.00000000
PL56  -2464.644350   4219.407720  -5262.492366
VL56  44596.833000 -35435.491000 -49348.487000
*  2022  1 22 21 54  0.00000000
PL56  -1633.052436   3501.670696  -6054.132047
VL56  47496.895000 -44093.987000 -38358.368000
*  2022  1 22 21 57  0.00000000
PL56   -765.868020   2640.898027  -6635.479912
VL56  48547.425000 -51275.297000 -26050.755000
*  2022  1 22 22  0  0.00000000
PL56    103.608803   1666.378350  -6986.608918
VL56  47759.238000 -56688.936000 -12852.330000
*  2022  1 22 22  3  0.00000000
PL56    942.896709    612.089457  -7095.542427
VL56  45211.840000 -60105.972000    782.584560
*  2022  1 22 22  6  0.00000000
PL56   1721.527983   -484.487552  -6958.620989
VL56  41048.473000 -61367.345000  14386.676000
*  2022  1 22 22  9  0.00000000
PL56   2412.135997  -1583.687526  -6580.604673
VL56  35469.098000 -60390.196000  27494.193000
*  2022  1 22 22 12  0.00000000
PL56   2991.402391  -2645.072961  -5974.514331
VL56  28722.087000 -57172.110000  39655.316000
*  2022  1 22 22 15  0.00000000
PL56   3440.842437  -3628.901517  -5161.219346
VL56  21094.489000 -51793.039000  50450.239000
*  2022  1 22 22 18  0.00000000
PL56   3747.405586  -4497.612388  -4168.766835
VL56  12900.999000 -44414.913000  59503.577000
*  2022  1 22 22 21  0.00000000
PL56   3903.863415  -5217.269417  -3031.460127
VL56   4471.777500 -35277.700000  66497.639000
*  2022  1 22 22 24  0.00000000
PL56   3908.975338  -5758.911305  -1788.713170
VL56  -3860.209800 -24692.818000  71184.209000
*  2022  1 22 22 27  0.00000000
PL56   3767.418165  -6099.750408   -483.699430
VL56 -11772.645000 -13032.810000  73395.236000
*  2022  1 22 22 30  0.00000000
PL56   3489.475486  -6224.155021    838.159039
VL56 -18967.060000   -717.674820  73049.900000
*  2022  1 22 22 33  0.00000000
PL56   3090.497294  -6124.363269   2130.802137
VL56 -25180.845000  11800.972000  70158.425000
*  2022  1 22 22 36  0.00000000
PL56   2590.155641  -5800.888359   3349.176331
VL56 -30197.961000  24058.330000  64822.045000
*  2022  1 22 22 39  0.00000000
PL56   2011.530534  -5262.592128   4450.837335
VL56 -33856.944000  35594.754000  57228.493000
*  2022  1 22 22 42  0.00000000
PL56   1380.077002  -4526.431204   5397.444969
VL56 -36056.009000  45973.404000  47644.462000
*  2022  1 22 22 45  0.00000000
PL56    722.523983  -3616.888927   6156.097498
VL56 -36755.544000  54797.406000  36405.594000
*  2022  1 22 22 48  0.00000000
PL56     65.753183  -2565.118883   6700.457282
VL56 -35977.831000  61724.734000  23903.306000
*  2022  1 22 22 51  0.00000000
PL56   -564.290034  -1407.844532   7011.630690
VL56 -33803.943000  66480.360000  10570.946000
*  2022  1 22 22 54  0.00000000
PL56  -1143.610348   -186.062904   7078.793753
VL56 -30368.528000  68866.018000  -3130.641100
*  2022  1 22 22 57  0.00000000
PL56  -1651.069210   1056.410945   6899.553898
VL56 -25853.070000  68767.841000 -16728.031000
*  2022  1 22 23  0  0.00000000
PL56  -2069.155456   2274.512140   6480.036384
VL56 -20477.643000  66161.446000 -29750.753000
*  2022  1 22 23  3  0.00000000
PL56  -2384.595287   3423.557714   5834.695486
VL56 -14491.323000  61113.832000 -41746.401000
*  2022  1 22 23  6  0.00000000
PL56  -2588.782816   4460.893798   4985.852473
VL56  -8161.903800  53783.097000 -52295.761000
*  2022  1 22 23  9  0.00000000
PL56  -2678.018024   5347.505716   3962.964872
VL56  -1764.773200  44414.572000 -61027.617000
*  2022  1 22 23 12  0.00000000
PL56  -2653.540602   6049.530914   2801.634245
VL56   4428.545300  33333.818000 -67632.672000
*  2022  1 22 23 15  0.00000000
PL56  -2521.354585   6539.605632   1542.375518
VL56  10162.063000  20935.302000 -71876.090000
*  2022  1 22 23 18  0.00000000
PL56  -2291.849241   6797.981707    229.189242
VL56  15206.307000   7668.045900 -73606.834000
*  2022  1 22 23 21  0.00000000
PL56  -1979.231368   6813.357726  -1092.012064
VL56  19368.070000  -5981.538400 -72764.284000
*  2022  1 22 23 24  0.00000000
PL56  -1600.796140   6583.377930  -2375.063874
VL56  22498.627000 -19509.329000 -69381.259000
*  2022  1 22 23 27  0.00000000
PL56  -1176.069592   6114.758896  -3575.219745
VL56  24499.551000 -32414.950000 -63581.632000
*  2022  1 22 23 30  0.00000000
PL56   -725.873488   5423.048939  -4650.741414
VL56  25325.496000 -44220.546000 -55574.489000
*  2022  1 22 23 33  0.00000000
PL56   -271.362972   4532.048928  -5564.354834
VL56  24984.640000 -54489.789000 -45645.113000
*  2022  1 22 23 36  0.00000000
PL56    166.919887   3472.925954  -6284.521323
VL56  23536.424000 -62843.133000 -34143.427000
*  2022  1 22 23 39  0.00000000
PL56    569.934720   2283.062790  -6786.484625
VL56  21087.320000 -68971.382000 -21470.698000
*  2022  1 22 23 42  0.00000000
PL56    920.934458   1004.698549  -7053.064825
VL56  17784.515000 -72645.499000  -8065.097000
*  2022  1 22 23 45  0.00000000
PL56   1206.132556   -316.581833  -7075.193360
VL56  13808.426000 -73723.749000   5612.729400
EOF
